{
  "type": "FeatureCollection",
  "name": "Catanduanes_No_Signal_Overlay",
  "crs": {
    "type": "name",
    "properties": {
      "name": "urn:ogc:def:crs:OGC:1.3:CRS84"
    }
  },
  "metadata": {
    "region": "Catanduanes, Philippines",
    "source": "Speedtest by Ookla Open Data (CC BY-NC-SA 4.0)",
    "license": "https://creativecommons.org/licenses/by-nc-sa/4.0/",
    "min_download_kbps": 5000,
    "max_latency_ms": 100,
    "good_tiles_count": 178,
    "total_tiles_scanned": 301,
    "note": "Gray areas indicate weak or unconfirmed mobile internet connectivity. Areas with no recorded tests appear gray."
  },
  "features": [
    {
      "type": "Feature",
      "properties": {
        "zone": "no_signal_or_unconfirmed",
        "label": "Low or No Signal Area",
        "description": "Mobile internet coverage is weak, unverified, or unavailable.",
        "fill": "#777777",
        "fill-opacity": 0.55,
        "stroke": false
      },
      "geometry": {
        "type": "MultiPolygon",
        "coordinates": [
          [
            [
              [
                123.9936853,
                13.6806209
              ],
              [
                124.0250454,
                13.6994507
              ],
              [
                124.0384381,
                13.7225771
              ],
              [
                124.0586451,
                13.7957068
              ],
              [
                124.0583281,
                13.8171803
              ],
              [
                124.0500085,
                13.8480896
              ],
              [
                124.0300473,
                13.8805086
              ],
              [
                124.0073638,
                13.8999923
              ],
              [
                123.982202,
                13.9110643
              ],
              [
                123.9728627,
                13.9204411
              ],
              [
                123.95,
                13.969636413327025
              ],
              [
                123.95,
                14.15
              ],
              [
                124.42108761286612,
                14.15
              ],
              [
                124.4267751,
                14.1310835
              ],
              [
                124.429225,
                14.1154712
              ],
              [
                124.4297764,
                14.0996882
              ],
              [
                124.4276555,
                14.0793804
              ],
              [
                124.45,
                14.054950777852559
              ],
              [
                124.45,
                13.5
              ],
              [
                124.154000976562,
                13.5
              ],
              [
                124.15349538539891,
                13.503480883127759
              ],
              [
                124.151000976562,
                13.5048141724287
              ],
              [
                124.14409362228952,
                13.504459936221746
              ],
              [
                124.14263699149281,
                13.502685026460464
              ],
              [
                124.1425078125,
                13.5
              ],
              [
                123.95848236111867,
                13.5
              ],
              [
                123.95,
                13.507716330669117
              ],
              [
                123.95,
                13.638355649207515
              ],
              [
                123.9756696,
                13.6660343
              ],
              [
                123.9936853,
                13.6806209
              ]
            ],
            [
              [
                124.365234375,
                13.6703382596549
              ],
              [
                124.36333119514751,
                13.669657291014987
              ],
              [
                124.36229201915879,
                13.667923530620948
              ],
              [
                124.36246273640246,
                13.655514728624905
              ],
              [
                124.36464910403396,
                13.65372042308079
              ],
              [
                124.37159839309376,
                13.653791957914803
              ],
              [
                124.37366989490322,
                13.65607750795595
              ],
              [
                124.373727539062,
                13.665669870572511
              ],
              [
                124.375926651704,
                13.664352705474883
              ],
              [
                124.38258472121976,
                13.664467438647703
              ],
              [
                124.38448550578553,
                13.666190209357804
              ],
              [
                124.384713867188,
                13.6696758186698
              ],
              [
                124.392994246733,
                13.669690264489784
              ],
              [
                124.3946033751645,
                13.670356787309712
              ],
              [
                124.39564255115322,
                13.672090547703752
              ],
              [
                124.395700195312,
                13.676344867643111
              ],
              [
                124.397899307954,
                13.675027702545483
              ],
              [
                124.40510071364848,
                13.675367492932454
              ],
              [
                124.40662887927921,
                13.67742798575945
              ],
              [
                124.40655734444519,
                13.684221427810163
              ],
              [
                124.40455737746976,
                13.686221394785596
              ],
              [
                124.40007204703693,
                13.6863505737784
              ],
              [
                124.40117891355501,
                13.688393718364011
              ],
              [
                124.401193359375,
                13.6940248447016
              ],
              [
                124.39986007007406,
                13.696519253538508
              ],
              [
                124.38633617721824,
                13.696895665708796
              ],
              [
                124.38488799988991,
                13.69592802455409
              ],
              [
                124.38422147706999,
                13.694318896122589
              ],
              [
                124.38422147706999,
                13.683056522357411
              ],
              [
                124.38532850680012,
                13.6810132567255
              ],
              [
                124.38029967697751,
                13.680659020518545
              ],
              [
                124.3788430461808,
                13.678884110757263
              ],
              [
                124.378713867188,
                13.6756758186698
              ],
              [
                124.37563543215896,
                13.67561817451101
              ],
              [
                124.37409938278144,
                13.67479713901336
              ],
              [
                124.37327834728379,
                13.673261089635849
              ],
              [
                124.373220703125,
                13.669006648737287
              ],
              [
                124.37131281002804,
                13.67028061549611
              ],
              [
                124.365234375,
                13.6703382596549
              ]
            ],
            [
              [
                124.38720703125,
                13.7877365493402
              ],
              [
                124.38530385139751,
                13.787055580700288
              ],
              [
                124.38426467540879,
                13.78532182030625
              ],
              [
                124.38456126745696,
                13.772652217844323
              ],
              [
                124.38633617721824,
                13.771195587047604
              ],
              [
                124.389700195312,
                13.7710664080548
              ],
              [
                124.38992855671447,
                13.767583104413905
              ],
              [
                124.39155214501491,
                13.765959516113467
              ],
              [
                124.39960754958548,
                13.766085390917954
              ],
              [
                124.40117891355501,
                13.768437103290012
              ],
              [
                124.40083912316804,
                13.786150739550678
              ],
              [
                124.398487410796,
                13.787722103520217
              ],
              [
                124.38720703125,
                13.7877365493402
              ]
            ],
            [
              [
                124.337768554688,
                13.8670801006859
              ],
              [
                124.33967173454049,
                13.867761069325812
              ],
              [
                124.34071091052921,
                13.869494829719851
              ],
              [
                124.34075410886801,
                13.875707084082489
              ],
              [
                124.33967173454049,
                13.877732064021588
              ],
              [
                124.33806260610899,
                13.878398586841517
              ],
              [
                124.326782226562,
                13.8784130326615
              ],
              [
                124.32446319520191,
                13.87731621251399
              ],
              [
                124.32379667238199,
                13.875707084082489
              ],
              [
                124.323782226562,
                13.8700801006859
              ],
              [
                124.32487904670951,
                13.867761069325812
              ],
              [
                124.32648817514101,
                13.867094546505884
              ],
              [
                124.337768554688,
                13.8670801006859
              ]
            ],
            [
              [
                124.307302734375,
                13.5819209005458
              ],
              [
                124.30780832553809,
                13.580254189846741
              ],
              [
                124.30915468407791,
                13.579149261948267
              ],
              [
                124.3139204638475,
                13.5789209005458
              ],
              [
                124.31281034425798,
                13.576875343317989
              ],
              [
                124.31281034425798,
                13.560267693660412
              ],
              [
                124.31367457809444,
                13.55844042473784
              ],
              [
                124.31521062747196,
                13.557619389240191
              ],
              [
                124.32295577319906,
                13.558067336244493
              ],
              [
                124.32423141834121,
                13.559976474115352
              ],
              [
                124.3242890625,
                13.564233325037371
              ],
              [
                124.32648817514101,
                13.562916159941084
              ],
              [
                124.33394210132406,
                13.563407305284192
              ],
              [
                124.335275390625,
                13.5659017141211
              ],
              [
                124.33526094480501,
                13.571535614495088
              ],
              [
                124.33415066317949,
                13.573581291897
              ],
              [
                124.33891660498509,
                13.573809653299467
              ],
              [
                124.34071091052921,
                13.575996020930951
              ],
              [
                124.34075410886801,
                13.582214951966789
              ],
              [
                124.33988987503156,
                13.58404222088936
              ],
              [
                124.33806260610899,
                13.584906454725816
              ],
              [
                124.33169011965896,
                13.58486325638701
              ],
              [
                124.33015407028144,
                13.58404222088936
              ],
              [
                124.32928983644499,
                13.582214951966789
              ],
              [
                124.32928983644499,
                13.576287240476011
              ],
              [
                124.33040011807051,
                13.5742415630741
              ],
              [
                124.32619695559596,
                13.57418391891531
              ],
              [
                124.3242890625,
                13.57290995215783
              ],
              [
                124.32415988350719,
                13.577452145928763
              ],
              [
                124.32265242327755,
                13.5792510962214
              ],
              [
                124.32423141834121,
                13.581335629579751
              ],
              [
                124.32415988350719,
                13.588131243008863
              ],
              [
                124.32243711279709,
                13.590032027574633
              ],
              [
                124.318795898438,
                13.5902603889771
              ],
              [
                124.31856753703553,
                13.593747807444196
              ],
              [
                124.31638116940404,
                13.59554211298831
              ],
              [
                124.30971746340896,
                13.59554211298831
              ],
              [
                124.30780832553809,
                13.59426646784616
              ],
              [
                124.307302734375,
                13.5819209005458
              ]
            ],
            [
              [
                124.29083768800798,
                13.656956830342988
              ],
              [
                124.29132883335109,
                13.64965814659204
              ],
              [
                124.29267519189091,
                13.648553218693566
              ],
              [
                124.29743885983876,
                13.6483248572911
              ],
              [
                124.29633085206999,
                13.646280866296289
              ],
              [
                124.29637405040879,
                13.629386692389051
              ],
              [
                124.29816835595291,
                13.627200324757567
              ],
              [
                124.301809570312,
                13.6269719633551
              ],
              [
                124.30186721447079,
                13.62404816727005
              ],
              [
                124.30290639045951,
                13.622314406876011
              ],
              [
                124.30451551889101,
                13.621647884056083
              ],
              [
                124.31145078467209,
                13.621861799638566
              ],
              [
                124.31307437297254,
                13.623485387939004
              ],
              [
                124.313302734375,
                13.6269719633551
              ],
              [
                124.31666675246976,
                13.627101142347904
              ],
              [
                124.3182890625,
                13.62830357427137
              ],
              [
                124.31834670665879,
                13.62404816727005
              ],
              [
                124.31941232950406,
                13.6222947925504
              ],
              [
                124.31492504440624,
                13.622165613557597
              ],
              [
                124.3129250774308,
                13.620165646582164
              ],
              [
                124.31281034425798,
                13.613661974920511
              ],
              [
                124.31367457809444,
                13.61183470599794
              ],
              [
                124.315501847017,
                13.610970472161483
              ],
              [
                124.32270325271048,
                13.611310262548454
              ],
              [
                124.32415988350719,
                13.613085172309736
              ],
              [
                124.3242890625,
                13.617626403466671
              ],
              [
                124.32619695559596,
                13.61635243670919
              ],
              [
                124.33039882013578,
                13.6162947925504
              ],
              [
                124.32928983644499,
                13.614250077762488
              ],
              [
                124.329275390625,
                13.608617139653
              ],
              [
                124.33060867992594,
                13.606122730816091
              ],
              [
                124.337768554688,
                13.605617139652999
              ],
              [
                124.33988987503156,
                13.606495819309439
              ],
              [
                124.340768554688,
                13.608617139653
              ],
              [
                124.34071091052921,
                13.614541297307548
              ],
              [
                124.3391328060603,
                13.61662540944595
              ],
              [
                124.340768554688,
                13.6192947925504
              ],
              [
                124.34075410886801,
                13.630266014776089
              ],
              [
                124.33988987503156,
                13.63209328369866
              ],
              [
                124.337768554688,
                13.6329719633551
              ],
              [
                124.3212890625,
                13.6329719633551
              ],
              [
                124.318795898438,
                13.63164035243883
              ],
              [
                124.31873825427921,
                13.63589563882985
              ],
              [
                124.31746260913705,
                13.637804776700708
              ],
              [
                124.307809570312,
                13.6383103678638
              ],
              [
                124.307809570312,
                13.6429868148753
              ],
              [
                124.31145078467209,
                13.643215176277767
              ],
              [
                124.31317355538219,
                13.645115960843537
              ],
              [
                124.31324509021621,
                13.651910128257148
              ],
              [
                124.31166787860238,
                13.65399381810655
              ],
              [
                124.31317355538219,
                13.655791924890236
              ],
              [
                124.313302734375,
                13.6590005797245
              ],
              [
                124.31694394873509,
                13.659228941126967
              ],
              [
                124.31866671944519,
                13.661129725692737
              ],
              [
                124.318795898438,
                13.6726758186698
              ],
              [
                124.31721008864848,
                13.675321582462846
              ],
              [
                124.313302734375,
                13.6756758186698
              ],
              [
                124.31317355538219,
                13.678884110757263
              ],
              [
                124.31196944507406,
                13.680507665562407
              ],
              [
                124.30668809476188,
                13.6810132567255
              ],
              [
                124.30779512449202,
                13.683056522357411
              ],
              [
                124.30779512449202,
                13.688981821205989
              ],
              [
                124.30595762060909,
                13.691459408382533
              ],
              [
                124.299022354829,
                13.691673323965016
              ],
              [
                124.29741322639751,
                13.691006801145088
              ],
              [
                124.29633085206999,
                13.688981821205989
              ],
              [
                124.29633085206999,
                13.683056522357411
              ],
              [
                124.29816835595291,
                13.680578935180867
              ],
              [
                124.30293104586212,
                13.6803505737784
              ],
              [
                124.30182401613199,
                13.678307308146488
              ],
              [
                124.30193874930481,
                13.671804964638037
              ],
              [
                124.30366152001491,
                13.669904180072267
              ],
              [
                124.307302734375,
                13.6696758186698
              ],
              [
                124.307302734375,
                13.6650005797245
              ],
              [
                124.30422429934596,
                13.66494293556571
              ],
              [
                124.30249053895191,
                13.663903759576991
              ],
              [
                124.301809570312,
                13.658331168005729
              ],
              [
                124.299610457671,
                13.659648333102016
              ],
              [
                124.293529190767,
                13.659648333102016
              ],
              [
                124.2919200623355,
                13.658981810282087
              ],
              [
                124.29083768800798,
                13.656956830342988
              ]
            ],
            [
              [
                124.3212890625,
                13.9157401209418
              ],
              [
                124.31938588264751,
                13.915059152301888
              ],
              [
                124.31834670665879,
                13.913325391907849
              ],
              [
                124.31879465366309,
                13.905741337457941
              ],
              [
                124.320995011079,
                13.904422493976984
              ],
              [
                124.32844893726106,
                13.904913639320092
              ],
              [
                124.32976778074202,
                13.907113996736012
              ],
              [
                124.32927663539891,
                13.914406831640859
              ],
              [
                124.32736749752804,
                13.91568247678301
              ],
              [
                124.3212890625,
                13.9157401209418
              ]
            ],
            [
              [
                124.29667064245696,
                13.852666379314023
              ],
              [
                124.29931640625,
                13.8510805695245
              ],
              [
                124.305103621733,
                13.851095015344484
              ],
              [
                124.30712860167209,
                13.85217738967201
              ],
              [
                124.30779512449202,
                13.853786518103512
              ],
              [
                124.307809570312,
                13.859413869074
              ],
              [
                124.30669367688492,
                13.8617470461423
              ],
              [
                124.31196944507406,
                13.862252637305392
              ],
              [
                124.31317355538219,
                13.863876192110537
              ],
              [
                124.313302734375,
                13.8670801006859
              ],
              [
                124.31666675246976,
                13.867209279678704
              ],
              [
                124.31856753703553,
                13.868932050388805
              ],
              [
                124.31878145261801,
                13.875707084082489
              ],
              [
                124.31769907829049,
                13.877732064021588
              ],
              [
                124.31608994985899,
                13.878398586841517
              ],
              [
                124.304809570312,
                13.8784130326615
              ],
              [
                124.30268824996844,
                13.87753435300506
              ],
              [
                124.30182401613199,
                13.875707084082489
              ],
              [
                124.301809570312,
                13.8647470461423
              ],
              [
                124.30292546373909,
                13.862413869074
              ],
              [
                124.29844555221824,
                13.862284690081196
              ],
              [
                124.296569824219,
                13.86061489702992
              ],
              [
                124.29411729360899,
                13.862399423254017
              ],
              [
                124.28254286264101,
                13.862399423254017
              ],
              [
                124.28019115026896,
                13.860828059284477
              ],
              [
                124.27985135988199,
                13.848453096116112
              ],
              [
                124.28142272385152,
                13.846101383744054
              ],
              [
                124.28947812842209,
                13.845975508939567
              ],
              [
                124.29110171672254,
                13.847599097240005
              ],
              [
                124.291330078125,
                13.8510805695245
              ],
              [
                124.29469409621976,
                13.851209748517304
              ],
              [
                124.29667064245696,
                13.852666379314023
              ]
            ],
            [
              [
                124.285330078125,
                13.605617139652999
              ],
              [
                124.28620875778144,
                13.60115681218524
              ],
              [
                124.288036026704,
                13.600292578348784
              ],
              [
                124.299610457671,
                13.600292578348784
              ],
              [
                124.30206298828101,
                13.60207710457288
              ],
              [
                124.30422429934596,
                13.60033577668759
              ],
              [
                124.31088800534104,
                13.60033577668759
              ],
              [
                124.31317355538219,
                13.602407278497036
              ],
              [
                124.31324509021621,
                13.609202410619048
              ],
              [
                124.31242405471856,
                13.61073845999656
              ],
              [
                124.310596785796,
                13.611602693833015
              ],
              [
                124.30422429934596,
                13.611559495494209
              ],
              [
                124.30231640625,
                13.610285528736728
              ],
              [
                124.30208804484754,
                13.615104076638595
              ],
              [
                124.29990167721604,
                13.61689838218271
              ],
              [
                124.29323797122196,
                13.61689838218271
              ],
              [
                124.2910766601565,
                13.615157054296368
              ],
              [
                124.28891534909104,
                13.61689838218271
              ],
              [
                124.28225164309596,
                13.61689838218271
              ],
              [
                124.27996609305481,
                13.614826880373263
              ],
              [
                124.27989455822079,
                13.60803186868695
              ],
              [
                124.28168886376491,
                13.605845501055466
              ],
              [
                124.285330078125,
                13.605617139652999
              ]
            ],
            [
              [
                124.277049698579,
                13.893757979835684
              ],
              [
                124.28999678882406,
                13.894249125178792
              ],
              [
                124.29110171672254,
                13.895595483718605
              ],
              [
                124.291330078125,
                13.900407463418112
              ],
              [
                124.293823242188,
                13.8990758525005
              ],
              [
                124.305103621733,
                13.899090298320484
              ],
              [
                124.30712860167209,
                13.90017267264801
              ],
              [
                124.30779512449202,
                13.901781801079512
              ],
              [
                124.307809570312,
                13.9127401209418
              ],
              [
                124.3067127501645,
                13.915059152301888
              ],
              [
                124.304809570312,
                13.9157401209418
              ],
              [
                124.29215653148894,
                13.915234529778708
              ],
              [
                124.29083768800798,
                13.913034172362789
              ],
              [
                124.290823242188,
                13.903744241582888
              ],
              [
                124.288330078125,
                13.9050758525005
              ],
              [
                124.277049698579,
                13.905061406680517
              ],
              [
                124.27502471863991,
                13.903979032352991
              ],
              [
                124.27435819581999,
                13.902369903921489
              ],
              [
                124.27434375,
                13.8967435340157
              ],
              [
                124.27544057014751,
                13.894424502655612
              ],
              [
                124.277049698579,
                13.893757979835684
              ]
            ],
            [
              [
                124.27592955978952,
                13.947375738713246
              ],
              [
                124.27440139415879,
                13.945315245886249
              ],
              [
                124.27434375,
                13.9393986402751
              ],
              [
                124.27484934116309,
                13.93773192957604
              ],
              [
                124.27619569970291,
                13.936627001677566
              ],
              [
                124.29411729360899,
                13.936413086095083
              ],
              [
                124.29659488078553,
                13.938250589978004
              ],
              [
                124.29680879636801,
                13.945024026341189
              ],
              [
                124.29572642204049,
                13.947049006280288
              ],
              [
                124.29411729360899,
                13.947715529100217
              ],
              [
                124.28472367093715,
                13.9477299749202
              ],
              [
                124.28582246824202,
                13.949767134969411
              ],
              [
                124.28582246824202,
                13.955686326063288
              ],
              [
                124.28398496435909,
                13.958163913239833
              ],
              [
                124.277049698579,
                13.958377828822316
              ],
              [
                124.27502471863991,
                13.95729545449479
              ],
              [
                124.27435819581999,
                13.955686326063288
              ],
              [
                124.27435819581999,
                13.949767134969411
              ],
              [
                124.27592955978952,
                13.947375738713246
              ]
            ],
            [
              [
                124.27734375,
                14.0010365396061
              ],
              [
                124.27544057014751,
                14.000355570966187
              ],
              [
                124.27440139415879,
                13.998621810572148
              ],
              [
                124.27484934116309,
                13.99103972795954
              ],
              [
                124.277049698579,
                13.989720884478583
              ],
              [
                124.28450362476106,
                13.990212029821691
              ],
              [
                124.28582246824202,
                13.99241238723761
              ],
              [
                124.28533132289891,
                13.999703250305158
              ],
              [
                124.28342218502804,
                14.00097889544731
              ],
              [
                124.27734375,
                14.0010365396061
              ]
            ],
            [
              [
                124.27734375,
                13.7130353424767
              ],
              [
                124.27544057014751,
                13.712354373836789
              ],
              [
                124.27440139415879,
                13.71062061344275
              ],
              [
                124.27484934116309,
                13.703031920391942
              ],
              [
                124.277049698579,
                13.701713076910984
              ],
              [
                124.28450362476106,
                13.702204222254093
              ],
              [
                124.28582246824202,
                13.704404579670012
              ],
              [
                124.28533132289891,
                13.71170205317576
              ],
              [
                124.28342218502804,
                13.71297769831791
              ],
              [
                124.27734375,
                13.7130353424767
              ]
            ],
            [
              [
                124.1601118700975,
                13.579581291897
              ],
              [
                124.15459096077251,
                13.578900323257088
              ],
              [
                124.15362331961781,
                13.577452145928763
              ],
              [
                124.15384837683196,
                13.569827372863623
              ],
              [
                124.15590886965896,
                13.56829920723289
              ],
              [
                124.16228135610899,
                13.568256008894084
              ],
              [
                124.16410862503156,
                13.56912024273054
              ],
              [
                124.16497285886801,
                13.570947511653111
              ],
              [
                124.16497285886801,
                13.576875343317989
              ],
              [
                124.1638627392785,
                13.5789209005458
              ],
              [
                124.16806573971604,
                13.57897854470459
              ],
              [
                124.16960178909356,
                13.57979958020224
              ],
              [
                124.17042282459121,
                13.581335629579751
              ],
              [
                124.17048046875,
                13.58559199989337
              ],
              [
                124.17267958139101,
                13.584274834797084
              ],
              [
                124.191946289062,
                13.5842603889771
              ],
              [
                124.19200393322079,
                13.575996020930951
              ],
              [
                124.19358305532785,
                13.57391142748555
              ],
              [
                124.19200393322079,
                13.571826834040149
              ],
              [
                124.19196073488199,
                13.565607662700112
              ],
              [
                124.19353209885152,
                13.563255950328054
              ],
              [
                124.20210616382406,
                13.563407305284192
              ],
              [
                124.20338180896621,
                13.565316443155051
              ],
              [
                124.203439453125,
                13.569573173991712
              ],
              [
                124.20534734622196,
                13.56829920723289
              ],
              [
                124.21142578125,
                13.5682415630741
              ],
              [
                124.214172363281,
                13.57004053511818
              ],
              [
                124.21604809128024,
                13.568370742066904
              ],
              [
                124.219412109375,
                13.5682415630741
              ],
              [
                124.21954128836781,
                13.565030860089337
              ],
              [
                124.22099791916452,
                13.563255950328054
              ],
              [
                124.22819932485899,
                13.562916159941084
              ],
              [
                124.23055103723104,
                13.564487523910623
              ],
              [
                124.230905273438,
                13.5682415630741
              ],
              [
                124.23426929153176,
                13.568370742066904
              ],
              [
                124.23604420129304,
                13.569827372863623
              ],
              [
                124.2363984375,
                13.5789209005458
              ],
              [
                124.24605147632406,
                13.579426491708892
              ],
              [
                124.24725558663219,
                13.581050046514036
              ],
              [
                124.247384765625,
                13.5842603889771
              ],
              [
                124.25074878371976,
                13.584389567969904
              ],
              [
                124.25252369348104,
                13.585846198766623
              ],
              [
                124.252877929688,
                13.590931368063371
              ],
              [
                124.25537109375,
                13.5895997571471
              ],
              [
                124.28342218502804,
                13.58965740130589
              ],
              [
                124.2857077350692,
                13.591728903115337
              ],
              [
                124.28582246824202,
                13.59823305643319
              ],
              [
                124.28425110427249,
                13.600584768805247
              ],
              [
                124.28034375,
                13.6009390050122
              ],
              [
                124.27998951379304,
                13.604692322739277
              ],
              [
                124.27734375,
                13.6062781325288
              ],
              [
                124.27018387523894,
                13.605772541365708
              ],
              [
                124.2689797649308,
                13.604148986560563
              ],
              [
                124.268850585938,
                13.6009390050122
              ],
              [
                124.25395690353952,
                13.600584768805247
              ],
              [
                124.25250027274281,
                13.598809859043964
              ],
              [
                124.25237109375,
                13.59426814623083
              ],
              [
                124.25017198110899,
                13.595585311327117
              ],
              [
                124.2363984375,
                13.5955997571471
              ],
              [
                124.23604420129304,
                13.599353195222678
              ],
              [
                124.233692488921,
                13.600924559192217
              ],
              [
                124.21662489389101,
                13.600924559192217
              ],
              [
                124.214172363281,
                13.599140032968121
              ],
              [
                124.21201105221604,
                13.60088136085341
              ],
              [
                124.205638565767,
                13.600924559192217
              ],
              [
                124.20328685339496,
                13.599353195222678
              ],
              [
                124.202932617188,
                13.5955997571471
              ],
              [
                124.17182558251491,
                13.595371395744634
              ],
              [
                124.17010281180481,
                13.593470611178864
              ],
              [
                124.169973632812,
                13.58892877806083
              ],
              [
                124.16748046875,
                13.5902603889771
              ],
              [
                124.161693253267,
                13.590245943157116
              ],
              [
                124.15986598434444,
                13.58938170932066
              ],
              [
                124.15900175050798,
                13.587554440398089
              ],
              [
                124.158987304688,
                13.5819209005458
              ],
              [
                124.1601118700975,
                13.579581291897
              ]
            ],
            [
              [
                124.260864257812,
                13.9743847996558
              ],
              [
                124.25896107795951,
                13.973703831015888
              ],
              [
                124.25792190197079,
                13.971970070621849
              ],
              [
                124.2583698489751,
                13.96438737061924
              ],
              [
                124.26057020639101,
                13.963068527138283
              ],
              [
                124.26802413257406,
                13.963559672481392
              ],
              [
                124.26934297605501,
                13.96576002989731
              ],
              [
                124.26885183071191,
                13.973051510354859
              ],
              [
                124.26694269284104,
                13.97432715549701
              ],
              [
                124.260864257812,
                13.9743847996558
              ]
            ],
            [
              [
                124.257864257812,
                13.8274122360773
              ],
              [
                124.25854522645191,
                13.82550905622481
              ],
              [
                124.26027898684596,
                13.82446988023609
              ],
              [
                124.26802413257406,
                13.824917827240393
              ],
              [
                124.26934297605501,
                13.827118184656312
              ],
              [
                124.26885183071191,
                13.834412858081059
              ],
              [
                124.266651473296,
                13.835731701562016
              ],
              [
                124.25919754711295,
                13.835240556218908
              ],
              [
                124.25792190197079,
                13.833331418348049
              ],
              [
                124.257864257812,
                13.8274122360773
              ]
            ],
            [
              [
                124.222412109375,
                14.0756449543803
              ],
              [
                124.22050892952251,
                14.074963985740387
              ],
              [
                124.21946975353379,
                14.073230225346348
              ],
              [
                124.21991770053809,
                14.06564987717714
              ],
              [
                124.222118057954,
                14.064331033696183
              ],
              [
                124.22957198413705,
                14.064822179039291
              ],
              [
                124.23089082761801,
                14.06702253645521
              ],
              [
                124.2303996822749,
                14.074311665079358
              ],
              [
                124.22849054440404,
                14.07558731022151
              ],
              [
                124.222412109375,
                14.0756449543803
              ]
            ],
            [
              [
                124.202932617188,
                13.5178376748907
              ],
              [
                124.20381129684444,
                13.51571635454714
              ],
              [
                124.205638565767,
                13.514852120710684
              ],
              [
                124.217212996733,
                13.514852120710684
              ],
              [
                124.21956470910504,
                13.516423484680223
              ],
              [
                124.21941335414891,
                13.524845313748958
              ],
              [
                124.21750421627804,
                13.52612095889111
              ],
              [
                124.21329959813333,
                13.5261786030499
              ],
              [
                124.21441133543001,
                13.528225360051112
              ],
              [
                124.21442578125,
                13.5338601001137
              ],
              [
                124.21283997146048,
                13.536505863906745
              ],
              [
                124.205638565767,
                13.536845654293716
              ],
              [
                124.20328685339496,
                13.535274290324177
              ],
              [
                124.20294706300798,
                13.528225360051112
              ],
              [
                124.2045705247643,
                13.525849007261
              ],
              [
                124.20299026134678,
                13.523763874015948
              ],
              [
                124.202932617188,
                13.5178376748907
              ]
            ],
            [
              [
                124.197439453125,
                13.5475411178799
              ],
              [
                124.19282496871844,
                13.54666243822346
              ],
              [
                124.19196073488199,
                13.544835169300889
              ],
              [
                124.19200393322079,
                13.538615397964751
              ],
              [
                124.19407543503024,
                13.536329847923604
              ],
              [
                124.20185364333548,
                13.536554905137754
              ],
              [
                124.20331027413219,
                13.538329814899036
              ],
              [
                124.203439453125,
                13.5415411178799
              ],
              [
                124.20708066748509,
                13.541769479282367
              ],
              [
                124.20880343819519,
                13.543670263848137
              ],
              [
                124.20887497302921,
                13.550466717883149
              ],
              [
                124.20680347121976,
                13.552752267924296
              ],
              [
                124.19929140282791,
                13.552653085514633
              ],
              [
                124.19766781452746,
                13.551029497214195
              ],
              [
                124.197439453125,
                13.5475411178799
              ]
            ],
            [
              [
                124.186453125,
                14.0726449543803
              ],
              [
                124.18713409363991,
                14.070741774527809
              ],
              [
                124.18886785403396,
                14.06970259853909
              ],
              [
                124.19661299976106,
                14.070150545543392
              ],
              [
                124.19793184324202,
                14.072350902959311
              ],
              [
                124.19744069789891,
                14.079639907370659
              ],
              [
                124.195240340483,
                14.080958750851616
              ],
              [
                124.18778641430094,
                14.080467605508508
              ],
              [
                124.18651076915879,
                14.078558467637649
              ],
              [
                124.186453125,
                14.0726449543803
              ]
            ],
            [
              [
                124.180959960938,
                14.0406728936736
              ],
              [
                124.18164092957791,
                14.03876971382111
              ],
              [
                124.18337468997196,
                14.03773053783239
              ],
              [
                124.19111983569906,
                14.038178484836692
              ],
              [
                124.19243867918001,
                14.040378842252611
              ],
              [
                124.19194753383691,
                14.047668591293359
              ],
              [
                124.189747176421,
                14.048987434774316
              ],
              [
                124.18229325023894,
                14.048496289431208
              ],
              [
                124.18101760509678,
                14.046587151560349
              ],
              [
                124.180959960938,
                14.0406728936736
              ]
            ],
            [
              [
                124.158987304688,
                13.6109560263415
              ],
              [
                124.15986598434444,
                13.606495819309439
              ],
              [
                124.161693253267,
                13.605631585472983
              ],
              [
                124.16806573971604,
                13.60567478381179
              ],
              [
                124.170227050781,
                13.607416111697079
              ],
              [
                124.17238836184596,
                13.60567478381179
              ],
              [
                124.17933765090676,
                13.605746318645803
              ],
              [
                124.18140915271621,
                13.60803186868695
              ],
              [
                124.18133761788219,
                13.614826880373263
              ],
              [
                124.18036997672749,
                13.616275057701587
              ],
              [
                124.178466796875,
                13.6169560263415
              ],
              [
                124.17238836184596,
                13.61689838218271
              ],
              [
                124.170227050781,
                13.61515705429742
              ],
              [
                124.16835132278176,
                13.616826847348696
              ],
              [
                124.164987304688,
                13.6169560263415
              ],
              [
                124.16485812569519,
                13.620165646582164
              ],
              [
                124.16340149489848,
                13.621940556343446
              ],
              [
                124.15562328659324,
                13.622165613557597
              ],
              [
                124.15355178478379,
                13.61988006351645
              ],
              [
                124.15355178478379,
                13.61337075537545
              ],
              [
                124.15534609032791,
                13.611184387743966
              ],
              [
                124.158987304688,
                13.6109560263415
              ]
            ],
            [
              [
                124.172973632812,
                14.0376728936736
              ],
              [
                124.1748768126645,
                14.038353862313512
              ],
              [
                124.17591598865322,
                14.040087622707551
              ],
              [
                124.17574527140954,
                14.052478793815295
              ],
              [
                124.17355890377804,
                14.05427309935941
              ],
              [
                124.16633241845291,
                14.054102382115733
              ],
              [
                124.16449491456999,
                14.051624794939189
              ],
              [
                124.16470883015246,
                14.039524843376505
              ],
              [
                124.16689519778396,
                14.03773053783239
              ],
              [
                124.172973632812,
                14.0376728936736
              ]
            ],
            [
              [
                124.16748046875,
                13.563561745081401
              ],
              [
                124.16557728889751,
                13.562880776441489
              ],
              [
                124.16453811290879,
                13.56114701604745
              ],
              [
                124.16498605991309,
                13.55355494529984
              ],
              [
                124.167186417329,
                13.552236101818883
              ],
              [
                124.17464034351106,
                13.552727247161991
              ],
              [
                124.17595918699202,
                13.55492760457791
              ],
              [
                124.17546804164891,
                13.56222845578046
              ],
              [
                124.17355890377804,
                13.56350410092261
              ],
              [
                124.16748046875,
                13.563561745081401
              ]
            ],
            [
              [
                124.161987304688,
                13.990376214146501
              ],
              [
                124.1600841248355,
                13.989695245506589
              ],
              [
                124.15904494884678,
                13.98796148511255
              ],
              [
                124.15949289585109,
                13.980379155414042
              ],
              [
                124.161693253267,
                13.979060311933084
              ],
              [
                124.16914717944906,
                13.979551457276193
              ],
              [
                124.17046602293001,
                13.981751814692112
              ],
              [
                124.16997487758691,
                13.98904292484556
              ],
              [
                124.16806573971604,
                13.99031856998771
              ],
              [
                124.161987304688,
                13.990376214146501
              ]
            ],
            [
              [
                124.161987304688,
                13.9264038977233
              ],
              [
                124.1600841248355,
                13.925722929083388
              ],
              [
                124.15904494884678,
                13.92398916868935
              ],
              [
                124.15949289585109,
                13.916405360112641
              ],
              [
                124.161693253267,
                13.915086516631684
              ],
              [
                124.16914717944906,
                13.915577661974792
              ],
              [
                124.17046602293001,
                13.917778019390711
              ],
              [
                124.16997487758691,
                13.92507060842236
              ],
              [
                124.16806573971604,
                13.92634625356451
              ],
              [
                124.161987304688,
                13.9264038977233
              ]
            ],
            [
              [
                124.148000976562,
                14.0353437827992
              ],
              [
                124.14868194520191,
                14.03344060294671
              ],
              [
                124.15041570559596,
                14.03240142695799
              ],
              [
                124.15816085132406,
                14.032849373962293
              ],
              [
                124.15947969480501,
                14.035049731378212
              ],
              [
                124.15898854946191,
                14.042339604372659
              ],
              [
                124.156788192046,
                14.043658447853616
              ],
              [
                124.14933426586295,
                14.043167302510508
              ],
              [
                124.14805862072079,
                14.041258164639649
              ],
              [
                124.148000976562,
                14.0353437827992
              ]
            ],
            [
              [
                124.137014648438,
                13.5659017141211
              ],
              [
                124.13769561707791,
                13.56399853426861
              ],
              [
                124.13942937747196,
                13.56295935827989
              ],
              [
                124.14717452319906,
                13.563407305284192
              ],
              [
                124.14849336668001,
                13.565607662700112
              ],
              [
                124.14800222133691,
                13.572908273773159
              ],
              [
                124.145801863921,
                13.574227117254116
              ],
              [
                124.13834793773894,
                13.573735971911008
              ],
              [
                124.13707229259678,
                13.571826834040149
              ],
              [
                124.137014648438,
                13.5659017141211
              ]
            ],
            [
              [
                124.131521484375,
                14.0033665169459
              ],
              [
                124.13220245301491,
                14.001463337093409
              ],
              [
                124.13393621340896,
                14.00042416110469
              ],
              [
                124.14665586279709,
                14.000594878348366
              ],
              [
                124.14845016834121,
                14.00278124597985
              ],
              [
                124.14827945109754,
                14.009844420931795
              ],
              [
                124.145801863921,
                14.011681924814717
              ],
              [
                124.13337343407791,
                14.011468009232233
              ],
              [
                124.13157912853379,
                14.009281641600749
              ],
              [
                124.131521484375,
                14.0033665169459
              ]
            ],
            [
              [
                124.060110351562,
                13.6139560263415
              ],
              [
                124.06169616135152,
                13.611310262548454
              ],
              [
                124.065603515625,
                13.6109560263415
              ],
              [
                124.06561796144499,
                13.602984081107811
              ],
              [
                124.06693680492594,
                13.600783723691892
              ],
              [
                124.07439073110899,
                13.600292578348784
              ],
              [
                124.07658984375,
                13.60160974344507
              ],
              [
                124.07664748790879,
                13.597353734046152
              ],
              [
                124.07792313305094,
                13.595444596175293
              ],
              [
                124.093069335938,
                13.5949390050122
              ],
              [
                124.09329769734046,
                13.591451706850005
              ],
              [
                124.09548406497196,
                13.58965740130589
              ],
              [
                124.10820371435909,
                13.589828118549567
              ],
              [
                124.1099264850692,
                13.591728903115337
              ],
              [
                124.110055664062,
                13.596270615929813
              ],
              [
                124.112548828125,
                13.5949390050122
              ],
              [
                124.134815535796,
                13.594953450832184
              ],
              [
                124.137014648438,
                13.596270615929813
              ],
              [
                124.13724300984046,
                13.591451706850005
              ],
              [
                124.139720597017,
                13.589614202967084
              ],
              [
                124.14637866653176,
                13.589728936139904
              ],
              [
                124.14845016834121,
                13.592014486181052
              ],
              [
                124.14845016834121,
                13.59852427597825
              ],
              [
                124.14687168191183,
                13.6006085687705
              ],
              [
                124.14849336668001,
                13.602984081107811
              ],
              [
                124.14849336668001,
                13.608911191073988
              ],
              [
                124.14782684386009,
                13.61052031950549
              ],
              [
                124.145801863921,
                13.611602693833015
              ],
              [
                124.134521484375,
                13.611617139653
              ],
              [
                124.132028320312,
                13.610285528735387
              ],
              [
                124.13179995890954,
                13.615104076638595
              ],
              [
                124.12961359127804,
                13.61689838218271
              ],
              [
                124.12186844555094,
                13.616450435178407
              ],
              [
                124.12059280040879,
                13.614541297307548
              ],
              [
                124.12053515625,
                13.610285528736728
              ],
              [
                124.11862726315404,
                13.611559495494209
              ],
              [
                124.112548828125,
                13.611617139653
              ],
              [
                124.110055664062,
                13.610285528735387
              ],
              [
                124.10999801990322,
                13.614541297307548
              ],
              [
                124.10872237476106,
                13.616450435178407
              ],
              [
                124.10069164596824,
                13.616826847348696
              ],
              [
                124.09924346863991,
                13.61585920619399
              ],
              [
                124.09857694581999,
                13.614250077762488
              ],
              [
                124.09857694581999,
                13.60832308823201
              ],
              [
                124.09968625434746,
                13.6062781325288
              ],
              [
                124.08146608940254,
                13.6062781325288
              ],
              [
                124.08258984375,
                13.608617139653
              ],
              [
                124.08257539793001,
                13.614250077762488
              ],
              [
                124.08190887511009,
                13.61585920619399
              ],
              [
                124.079883895171,
                13.616941580521516
              ],
              [
                124.071603515625,
                13.6169560263415
              ],
              [
                124.07137515422254,
                13.620442842847496
              ],
              [
                124.06918878659104,
                13.62223714839161
              ],
              [
                124.06281630014101,
                13.622280346730417
              ],
              [
                124.06098903121844,
                13.62141611289396
              ],
              [
                124.06012479738199,
                13.619588843971389
              ],
              [
                124.060110351562,
                13.6139560263415
              ]
            ],
            [
              [
                124.140014648438,
                13.8724130326615
              ],
              [
                124.14191782829049,
                13.873094001301412
              ],
              [
                124.14295700427921,
                13.874827761695451
              ],
              [
                124.14278628703553,
                13.887226579031996
              ],
              [
                124.14059991940404,
                13.88902088457611
              ],
              [
                124.13337343407791,
                13.888850167332434
              ],
              [
                124.13153593019499,
                13.88637258015589
              ],
              [
                124.13174984577746,
                13.874264982364405
              ],
              [
                124.13393621340896,
                13.87247067682029
              ],
              [
                124.140014648438,
                13.8724130326615
              ]
            ],
            [
              [
                124.131521484375,
                13.990376214146501
              ],
              [
                124.12815746628024,
                13.990247035153697
              ],
              [
                124.12625668171447,
                13.988524264443596
              ],
              [
                124.12604276613199,
                13.981751814692112
              ],
              [
                124.12690699996844,
                13.97992454576954
              ],
              [
                124.129028320312,
                13.9790458661131
              ],
              [
                124.14030869985899,
                13.979060311933084
              ],
              [
                124.14213596878156,
                13.97992454576954
              ],
              [
                124.143014648438,
                13.9820458661131
              ],
              [
                124.14300020261801,
                13.993000490079588
              ],
              [
                124.14213596878156,
                13.99482775900216
              ],
              [
                124.14030869985899,
                13.995691992838616
              ],
              [
                124.13337343407791,
                13.995478077256132
              ],
              [
                124.13174984577746,
                13.993854488955694
              ],
              [
                124.131521484375,
                13.990376214146501
              ]
            ],
            [
              [
                124.12353515625,
                13.5849209005458
              ],
              [
                124.12163197639751,
                13.584239931905888
              ],
              [
                124.12059280040879,
                13.582506171511849
              ],
              [
                124.12104074741309,
                13.574914581197941
              ],
              [
                124.123241104829,
                13.573595737716984
              ],
              [
                124.13069503101106,
                13.574086883060092
              ],
              [
                124.13201387449202,
                13.576287240476011
              ],
              [
                124.13152272914891,
                13.583587611244859
              ],
              [
                124.12961359127804,
                13.58486325638701
              ],
              [
                124.12353515625,
                13.5849209005458
              ]
            ],
            [
              [
                124.115548828125,
                13.7367170795724
              ],
              [
                124.11396301833548,
                13.739362843365447
              ],
              [
                124.110055664062,
                13.7397170795724
              ],
              [
                124.1099264850692,
                13.742923916752163
              ],
              [
                124.10846985427249,
                13.744698826513446
              ],
              [
                124.10041444970291,
                13.744824701317933
              ],
              [
                124.09857694581999,
                13.742347114141388
              ],
              [
                124.09879086140246,
                13.730232924645605
              ],
              [
                124.101268448579,
                13.728395420762684
              ],
              [
                124.11369687842209,
                13.728609336345167
              ],
              [
                124.11549118396621,
                13.730795703976652
              ],
              [
                124.115548828125,
                13.7367170795724
              ]
            ],
            [
              [
                124.107055664062,
                13.701698631091
              ],
              [
                124.1089588439145,
                13.702379599730913
              ],
              [
                124.10999801990322,
                13.704113360124952
              ],
              [
                124.11004121824202,
                13.71032939389769
              ],
              [
                124.1089588439145,
                13.712354373836789
              ],
              [
                124.107349715483,
                13.713020896656717
              ],
              [
                124.096069335938,
                13.7130353424767
              ],
              [
                124.09375030457791,
                13.711938522329191
              ],
              [
                124.09308378175798,
                13.71032939389769
              ],
              [
                124.093069335938,
                13.704698631091
              ],
              [
                124.0941661560855,
                13.702379599730913
              ],
              [
                124.095775284517,
                13.701713076910984
              ],
              [
                124.107055664062,
                13.701698631091
              ]
            ],
            [
              [
                124.0576171875,
                13.6009390050122
              ],
              [
                124.05571400764751,
                13.600258036372288
              ],
              [
                124.05467483165879,
                13.59852427597825
              ],
              [
                124.05512277866309,
                13.590933046448042
              ],
              [
                124.057323136079,
                13.589614202967084
              ],
              [
                124.06477706226106,
                13.590105348310193
              ],
              [
                124.06609590574202,
                13.592305705726112
              ],
              [
                124.06560476039891,
                13.59960571571126
              ],
              [
                124.06369562252804,
                13.60088136085341
              ],
              [
                124.0576171875,
                13.6009390050122
              ]
            ],
            [
              [
                124.0546171875,
                13.6780132567255
              ],
              [
                124.05529815613991,
                13.676110076873009
              ],
              [
                124.05703191653396,
                13.67507090088429
              ],
              [
                124.06477706226106,
                13.675518847888592
              ],
              [
                124.06609590574202,
                13.677719205304511
              ],
              [
                124.06560476039891,
                13.685017284477459
              ],
              [
                124.063404402983,
                13.686336127958416
              ],
              [
                124.05595047680094,
                13.685844982615308
              ],
              [
                124.05467483165879,
                13.683935844744449
              ],
              [
                124.0546171875,
                13.6780132567255
              ]
            ],
            [
              [
                124.038137695312,
                13.5575617450814
              ],
              [
                124.03901637496844,
                13.553100335655339
              ],
              [
                124.04084364389101,
                13.552236101818883
              ],
              [
                124.04721613034104,
                13.55227930015769
              ],
              [
                124.04950168038219,
                13.554350801967136
              ],
              [
                124.04927662316804,
                13.561975935291878
              ],
              [
                124.04750171340676,
                13.563432566088597
              ],
              [
                124.044137695312,
                13.563561745081401
              ],
              [
                124.04390933390954,
                13.567049764418195
              ],
              [
                124.04200854934376,
                13.568772535128296
              ],
              [
                124.03505926028396,
                13.56884406996231
              ],
              [
                124.03277371024281,
                13.566772568152864
              ],
              [
                124.03287289265246,
                13.559413694784306
              ],
              [
                124.03477367721824,
                13.557690924074205
              ],
              [
                124.038137695312,
                13.5575617450814
              ]
            ],
            [
              [
                124.010671875,
                13.5498814469171
              ],
              [
                124.01135284363991,
                13.54797826706461
              ],
              [
                124.01308660403396,
                13.54693909107589
              ],
              [
                124.02083174976106,
                13.547387038080192
              ],
              [
                124.02215059324202,
                13.549587395496111
              ],
              [
                124.02165944789891,
                13.556888366697958
              ],
              [
                124.019459090483,
                13.558207210178916
              ],
              [
                124.01200516430094,
                13.557716064835807
              ],
              [
                124.01072951915879,
                13.555806926964948
              ],
              [
                124.010671875,
                13.5498814469171
              ]
            ],
            [
              [
                123.955740234375,
                13.5231786030499
              ],
              [
                123.95642120301491,
                13.521275423197409
              ],
              [
                123.95815496340896,
                13.52023624720869
              ],
              [
                123.96590010913705,
                13.520684194212992
              ],
              [
                123.96721895261801,
                13.522884551628911
              ],
              [
                123.9667278072749,
                13.530186122171159
              ],
              [
                123.96452744985899,
                13.531504965652116
              ],
              [
                123.95707352367594,
                13.531013820309008
              ],
              [
                123.95579787853379,
                13.529104682438149
              ],
              [
                123.955740234375,
                13.5231786030499
              ]
            ]
          ],
          [
            [
              [
                124.39411438552249,
                13.680704809985354
              ],
              [
                124.395193359375,
                13.681682184696012
              ],
              [
                124.395193359375,
                13.679681645807888
              ],
              [
                124.39482151565556,
                13.68013457706906
              ],
              [
                124.39411438552249,
                13.680704809985354
              ]
            ]
          ],
          [
            [
              [
                124.395700195312,
                13.685687769785
              ],
              [
                124.39607203903144,
                13.68547189412196
              ],
              [
                124.395700195312,
                13.685018962860788
              ],
              [
                124.395700195312,
                13.685687769785
              ]
            ]
          ],
          [
            [
              [
                124.323782226562,
                13.621633438236099
              ],
              [
                124.323782226562,
                13.62096318163413
              ],
              [
                124.32316579549594,
                13.621633438236099
              ],
              [
                124.323782226562,
                13.621633438236099
              ]
            ]
          ],
          [
            [
              [
                124.301809570312,
                13.6489868148753
              ],
              [
                124.30143772659356,
                13.649203536947539
              ],
              [
                124.301809570312,
                13.64965646820737
              ],
              [
                124.301809570312,
                13.6489868148753
              ]
            ]
          ],
          [
            [
              [
                124.30231640625,
                13.65499438983827
              ],
              [
                124.30344442608462,
                13.65399381810655
              ],
              [
                124.30231640625,
                13.652993246374828
              ],
              [
                124.30231640625,
                13.65499438983827
              ]
            ]
          ],
          [
            [
              [
                124.202932617188,
                13.573581291897
              ],
              [
                124.202932617188,
                13.572909952156488
              ],
              [
                124.20231472567949,
                13.573581291897
              ],
              [
                124.202932617188,
                13.573581291897
              ]
            ]
          ],
          [
            [
              [
                124.137521484375,
                13.6002781325288
              ],
              [
                124.13789332809444,
                13.600060325355761
              ],
              [
                124.137521484375,
                13.599607394094589
              ],
              [
                124.137521484375,
                13.6002781325288
              ]
            ]
          ],
          [
            [
              [
                124.131521484375,
                13.6062781325288
              ],
              [
                124.13114964065556,
                13.606495819309439
              ],
              [
                124.131521484375,
                13.606948750570611
              ],
              [
                124.131521484375,
                13.6062781325288
              ]
            ]
          ],
          [
            [
              [
                124.121041992188,
                13.6062781325288
              ],
              [
                124.121041992188,
                13.60694875056927
              ],
              [
                124.12165891059746,
                13.6062781325288
              ],
              [
                124.121041992188,
                13.6062781325288
              ]
            ]
          ],
          [
            [
              [
                124.109548828125,
                13.599607394094589
              ],
              [
                124.10792651809376,
                13.600809826019397
              ],
              [
                124.1045625,
                13.6009390050122
              ],
              [
                124.10450485584121,
                13.603863403494849
              ],
              [
                124.10343874565254,
                13.605617139652999
              ],
              [
                124.10764093502804,
                13.60567478381179
              ],
              [
                124.109548828125,
                13.606948750570611
              ],
              [
                124.109548828125,
                13.599607394094589
              ]
            ]
          ],
          [
            [
              [
                124.077096679688,
                13.605617139652999
              ],
              [
                124.07746852340644,
                13.60539945287236
              ],
              [
                124.077096679688,
                13.60494652161253
              ],
              [
                124.077096679688,
                13.605617139652999
              ]
            ]
          ]
        ]
      }
    }
  ]
}